CUTE-1.7+APD II (CO-65) 
1 32785U 08021C   24300.87567710  .00015765  00000+0  12803-2 0  9995
2 32785  97.7745 265.4583 0007873 248.7538 111.2844 14.99680326895192
SEEDS II (CO-66)        
1 32791U 08021J   24300.89155130  .00029922  00000+0  18951-2 0  9993
2 32791  97.7047 271.8443 0003281 186.0838 174.0351 15.08902841896423
YUBILEINY (RS-30)       
1 32953U 08025A   24301.46181662  .00000037  00000+0  19092-3 0  9994
2 32953  82.5079   7.2115 0019971 173.5128 186.6214 12.43151411745563
KKS-1 (KISEKI)          
1 33499U 09002H   24300.84841160  .00005706  00000+0  76215-3 0  9991
2 33499  98.1256 203.9748 0010016  69.1238 291.1044 14.79910331848011
SWISSCUBE               
1 35932U 09051B   24300.65849432  .00003853  00000+0  81298-3 0  9996
2 35932  98.4503 186.5327 0005758 276.4397  83.6146 14.59988217801739
BEESAT-1                
1 35933U 09051C   24301.17194373  .00004485  00000+0  95251-3 0  9998
2 35933  98.4431 187.7829 0004252 292.3138  67.7610 14.59603951801950
ITUPSAT1                
1 35935U 09051E   24300.94051884  .00003447  00000+0  75237-3 0  9992
2 35935  98.4530 187.2562 0006650 298.1600  61.8926 14.58490893801462
XIWANG-1 (HOPE-1)       
1 36122U 09072B   24301.42918225  .00000015  00000+0  15473-3 0  9993
2 36122 100.3139 256.3205 0007645 156.2166 203.9302 13.16411446714456
O/OREOS (USA 219)       
1 37224U 10062C   24300.56774702  .00006354  00000+0  68046-3 0  9998
2 37224  71.9742 352.1120 0013188 128.7658 231.4690 14.88952430 27370
JUGNU                   
1 37839U 11058B   24301.51230510  .00001211  00000+0  49497-3 0  9992
2 37839  19.9624 338.6212 0018535 317.5591 193.5816 14.13384429674460
SRMSAT                  
1 37841U 11058D   24301.48431097  .00000943  00000+0  37015-3 0  9998
2 37841  19.9719  76.5281 0011827 108.7640 304.5980 14.11255193673495
STRAND-1                
1 39090U 13009E   24300.80955726  .00001208  00000+0  42704-3 0  9995
2 39090  98.3797 125.5123 0008163 213.8966 146.1700 14.36386158611134
ZACUBE-1 (TSHEPISOSAT)  
1 39417U 13066B   24300.83963809  .00013278  00000+0  12821-2 0  9991
2 39417  97.7500 254.1801 0050652  84.2413 276.4578 14.91988788591192
GOMX-1                  
1 39430U 13066Q   24301.43539005  .00007782  00000+0  12554-2 0  9996
2 39430  97.7097 167.7834 0136283 191.3042 168.5094 14.65616932582404
CUBEBUG-2 (LO-74)       
1 39440U 13066AA  24300.82368253  .00009426  00000+0  10450-2 0  9994
2 39440  97.8232 241.9139 0065678 201.6471 158.1965 14.85911284587867
FUNCUBE-1 (AO-73)       
1 39444U 13066AE  24300.84902365  .00021878  00000+0  19197-2 0  9990
2 39444  97.7355 257.7215 0047809  63.5491 297.0624 14.95736656590351
UWE-3                   
1 39446U 13066AG  24300.85338586  .00011694  00000+0  12183-2 0  9994
2 39446  97.7947 248.0734 0058567 144.2655 216.2504 14.88673741588861
