[{"OBJECT_NAME":"CUTE-1.7+APD II (CO-65)","OBJECT_ID":"2008-021C","EPOCH":"2024-10-26T21:00:58.501440","MEAN_MOTION":14.99680326,"ECCENTRICITY":0.0007873,"INCLINATION":97.7745,"RA_OF_ASC_NODE":265.4583,"ARG_OF_PERICENTER":248.7538,"MEAN_ANOMALY":111.2844,"EPHEMERIS_TYPE":0,"CLASSIFICATION_TYPE":"U","NORAD_CAT_ID":32785,"ELEMENT_SET_NO":999,"REV_AT_EPOCH":89519,"BSTAR":0.0012803,"MEAN_MOTION_DOT":0.00015765,"MEAN_MOTION_DDOT":0},{"OBJECT_NAME":"SEEDS II (CO-66)","OBJECT_ID":"2008-021J","EPOCH":"2024-10-26T21:23:50.032320","MEAN_MOTION":15.08902841,"ECCENTRICITY":0.0003281,"INCLINATION":97.7047,"RA_OF_ASC_NODE":271.8443,"ARG_OF_PERICENTER":186.0838,"MEAN_ANOMALY":174.0351,"EPHEMERIS_TYPE":0,"CLASSIFICATION_TYPE":"U","NORAD_CAT_ID":32791,"ELEMENT_SET_NO":999,"REV_AT_EPOCH":89642,"BSTAR":0.0018951,"MEAN_MOTION_DOT":0.00029922,"MEAN_MOTION_DDOT":0},{"OBJECT_NAME":"YUBILEINY (RS-30)","OBJECT_ID":"2008-025A","EPOCH":"2024-10-27T11:05:00.955968","MEAN_MOTION":12.43151411,"ECCENTRICITY":0.0019971,"INCLINATION":82.5079,"RA_OF_ASC_NODE":7.2115,"ARG_OF_PERICENTER":173.5128,"MEAN_ANOMALY":186.6214,"EPHEMERIS_TYPE":0,"CLASSIFICATION_TYPE":"U","NORAD_CAT_ID":32953,"ELEMENT_SET_NO":999,"REV_AT_EPOCH":74556,"BSTAR":0.00019092,"MEAN_MOTION_DOT":3.7e-7,"MEAN_MOTION_DDOT":0},{"OBJECT_NAME":"KKS-1 (KISEKI)","OBJECT_ID":"2009-002H","EPOCH":"2024-10-26T20:21:42.762240","MEAN_MOTION":14.79910331,"ECCENTRICITY":0.0010016,"INCLINATION":98.1256,"RA_OF_ASC_NODE":203.9748,"ARG_OF_PERICENTER":69.1238,"MEAN_ANOMALY":291.1044,"EPHEMERIS_TYPE":0,"CLASSIFICATION_TYPE":"U","NORAD_CAT_ID":33499,"ELEMENT_SET_NO":999,"REV_AT_EPOCH":84801,"BSTAR":0.00076215,"MEAN_MOTION_DOT":5.706e-5,"MEAN_MOTION_DDOT":0},{"OBJECT_NAME":"SWISSCUBE","OBJECT_ID":"2009-051B","EPOCH":"2024-10-26T15:48:13.909248","MEAN_MOTION":14.59988217,"ECCENTRICITY":0.0005758,"INCLINATION":98.4503,"RA_OF_ASC_NODE":186.5327,"ARG_OF_PERICENTER":276.4397,"MEAN_ANOMALY":83.6146,"EPHEMERIS_TYPE":0,"CLASSIFICATION_TYPE":"U","NORAD_CAT_ID":35932,"ELEMENT_SET_NO":999,"REV_AT_EPOCH":80173,"BSTAR":0.00081298,"MEAN_MOTION_DOT":3.853e-5,"MEAN_MOTION_DDOT":0},{"OBJECT_NAME":"BEESAT-1","OBJECT_ID":"2009-051C","EPOCH":"2024-10-27T04:07:35.938272","MEAN_MOTION":14.59603951,"ECCENTRICITY":0.0004252,"INCLINATION":98.4431,"RA_OF_ASC_NODE":187.7829,"ARG_OF_PERICENTER":292.3138,"MEAN_ANOMALY":67.761,"EPHEMERIS_TYPE":0,"CLASSIFICATION_TYPE":"U","NORAD_CAT_ID":35933,"ELEMENT_SET_NO":999,"REV_AT_EPOCH":80195,"BSTAR":0.00095251,"MEAN_MOTION_DOT":4.485e-5,"MEAN_MOTION_DDOT":0},{"OBJECT_NAME":"ITUPSAT1","OBJECT_ID":"2009-051E","EPOCH":"2024-10-26T22:34:20.827776","MEAN_MOTION":14.58490893,"ECCENTRICITY":0.000665,"INCLINATION":98.453,"RA_OF_ASC_NODE":187.2562,"ARG_OF_PERICENTER":298.16,"MEAN_ANOMALY":61.8926,"EPHEMERIS_TYPE":0,"CLASSIFICATION_TYPE":"U","NORAD_CAT_ID":35935,"ELEMENT_SET_NO":999,"REV_AT_EPOCH":80146,"BSTAR":0.00075237,"MEAN_MOTION_DOT":3.447e-5,"MEAN_MOTION_DDOT":0},{"OBJECT_NAME":"XIWANG-1 (HOPE-1)","OBJECT_ID":"2009-072B","EPOCH":"2024-10-27T10:18:01.346400","MEAN_MOTION":13.16411446,"ECCENTRICITY":0.0007645,"INCLINATION":100.3139,"RA_OF_ASC_NODE":256.3205,"ARG_OF_PERICENTER":156.2166,"MEAN_ANOMALY":203.9302,"EPHEMERIS_TYPE":0,"CLASSIFICATION_TYPE":"U","NORAD_CAT_ID":36122,"ELEMENT_SET_NO":999,"REV_AT_EPOCH":71445,"BSTAR":0.00015473,"MEAN_MOTION_DOT":1.5e-7,"MEAN_MOTION_DDOT":0},{"OBJECT_NAME":"O/OREOS (USA 219)","OBJECT_ID":"2010-062C","EPOCH":"2024-10-26T13:37:33.342528","MEAN_MOTION":14.8895243,"ECCENTRICITY":0.0013188,"INCLINATION":71.9742,"RA_OF_ASC_NODE":352.112,"ARG_OF_PERICENTER":128.7658,"MEAN_ANOMALY":231.469,"EPHEMERIS_TYPE":0,"CLASSIFICATION_TYPE":"U","NORAD_CAT_ID":37224,"ELEMENT_SET_NO":999,"REV_AT_EPOCH":2737,"BSTAR":0.00068046,"MEAN_MOTION_DOT":6.354e-5,"MEAN_MOTION_DDOT":0},{"OBJECT_NAME":"JUGNU","OBJECT_ID":"2011-058B","EPOCH":"2024-10-27T12:17:43.160640","MEAN_MOTION":14.13384429,"ECCENTRICITY":0.0018535,"INCLINATION":19.9624,"RA_OF_ASC_NODE":338.6212,"ARG_OF_PERICENTER":317.5591,"MEAN_ANOMALY":193.5816,"EPHEMERIS_TYPE":0,"CLASSIFICATION_TYPE":"U","NORAD_CAT_ID":37839,"ELEMENT_SET_NO":999,"REV_AT_EPOCH":67446,"BSTAR":0.00049497,"MEAN_MOTION_DOT":1.211e-5,"MEAN_MOTION_DDOT":0},{"OBJECT_NAME":"SRMSAT","OBJECT_ID":"2011-058D","EPOCH":"2024-10-27T11:37:24.467808","MEAN_MOTION":14.11255193,"ECCENTRICITY":0.0011827,"INCLINATION":19.9719,"RA_OF_ASC_NODE":76.5281,"ARG_OF_PERICENTER":108.764,"MEAN_ANOMALY":304.598,"EPHEMERIS_TYPE":0,"CLASSIFICATION_TYPE":"U","NORAD_CAT_ID":37841,"ELEMENT_SET_NO":999,"REV_AT_EPOCH":67349,"BSTAR":0.00037015,"MEAN_MOTION_DOT":9.43e-6,"MEAN_MOTION_DDOT":0},{"OBJECT_NAME":"STRAND-1","OBJECT_ID":"2013-009E","EPOCH":"2024-10-26T19:25:45.747264","MEAN_MOTION":14.36386158,"ECCENTRICITY":0.0008163,"INCLINATION":98.3797,"RA_OF_ASC_NODE":125.5123,"ARG_OF_PERICENTER":213.8966,"MEAN_ANOMALY":146.17,"EPHEMERIS_TYPE":0,"CLASSIFICATION_TYPE":"U","NORAD_CAT_ID":39090,"ELEMENT_SET_NO":999,"REV_AT_EPOCH":61113,"BSTAR":0.00042704,"MEAN_MOTION_DOT":1.208e-5,"MEAN_MOTION_DDOT":0},{"OBJECT_NAME":"ZACUBE-1 (TSHEPISOSAT)","OBJECT_ID":"2013-066B","EPOCH":"2024-10-26T20:09:04.730976","MEAN_MOTION":14.91988788,"ECCENTRICITY":0.0050652,"INCLINATION":97.75,"RA_OF_ASC_NODE":254.1801,"ARG_OF_PERICENTER":84.2413,"MEAN_ANOMALY":276.4578,"EPHEMERIS_TYPE":0,"CLASSIFICATION_TYPE":"U","NORAD_CAT_ID":39417,"ELEMENT_SET_NO":999,"REV_AT_EPOCH":59119,"BSTAR":0.0012821,"MEAN_MOTION_DOT":0.00013278,"MEAN_MOTION_DDOT":0},{"OBJECT_NAME":"GOMX-1","OBJECT_ID":"2013-066Q","EPOCH":"2024-10-27T10:26:57.700320","MEAN_MOTION":14.65616932,"ECCENTRICITY":0.0136283,"INCLINATION":97.7097,"RA_OF_ASC_NODE":167.7834,"ARG_OF_PERICENTER":191.3042,"MEAN_ANOMALY":168.5094,"EPHEMERIS_TYPE":0,"CLASSIFICATION_TYPE":"U","NORAD_CAT_ID":39430,"ELEMENT_SET_NO":999,"REV_AT_EPOCH":58240,"BSTAR":0.0012554,"MEAN_MOTION_DOT":7.782e-5,"MEAN_MOTION_DDOT":0},{"OBJECT_NAME":"CUBEBUG-2 (LO-74)","OBJECT_ID":"2013-066AA","EPOCH":"2024-10-26T19:46:06.170592","MEAN_MOTION":14.85911284,"ECCENTRICITY":0.0065678,"INCLINATION":97.8232,"RA_OF_ASC_NODE":241.9139,"ARG_OF_PERICENTER":201.6471,"MEAN_ANOMALY":158.1965,"EPHEMERIS_TYPE":0,"CLASSIFICATION_TYPE":"U","NORAD_CAT_ID":39440,"ELEMENT_SET_NO":999,"REV_AT_EPOCH":58786,"BSTAR":0.001045,"MEAN_MOTION_DOT":9.426e-5,"MEAN_MOTION_DDOT":0},{"OBJECT_NAME":"FUNCUBE-1 (AO-73)","OBJECT_ID":"2013-066AE","EPOCH":"2024-10-26T20:22:35.643360","MEAN_MOTION":14.95736656,"ECCENTRICITY":0.0047809,"INCLINATION":97.7355,"RA_OF_ASC_NODE":257.7215,"ARG_OF_PERICENTER":63.5491,"MEAN_ANOMALY":297.0624,"EPHEMERIS_TYPE":0,"CLASSIFICATION_TYPE":"U","NORAD_CAT_ID":39444,"ELEMENT_SET_NO":999,"REV_AT_EPOCH":59035,"BSTAR":0.0019197,"MEAN_MOTION_DOT":0.00021878,"MEAN_MOTION_DDOT":0},{"OBJECT_NAME":"UWE-3","OBJECT_ID":"2013-066AG","EPOCH":"2024-10-26T20:28:52.538304","MEAN_MOTION":14.88673741,"ECCENTRICITY":0.0058567,"INCLINATION":97.7947,"RA_OF_ASC_NODE":248.0734,"ARG_OF_PERICENTER":144.2655,"MEAN_ANOMALY":216.2504,"EPHEMERIS_TYPE":0,"CLASSIFICATION_TYPE":"U","NORAD_CAT_ID":39446,"ELEMENT_SET_NO":999,"REV_AT_EPOCH":58886,"BSTAR":0.0012183,"MEAN_MOTION_DOT":0.00011694,"MEAN_MOTION_DDOT":0}]
